NORAD_CAT_ID,OBJECT_NAME,OBJECT_TYPE,EPOCH,MEAN_MOTION,ECCENTRICITY,INCLINATION,RA_OF_ASC_NODE,ARG_OF_PERICENTER,MEAN_ANOMALY,BSTAR,MEAN_MOTION_DOT,MEAN_MOTION_DDOT,TLE_LINE0,TLE_LINE1,TLE_LINE2,SEMIMAJOR_AXIS,PERIOD,APOGEE,PERIGEE,DECAYED
48148,STARLINK-2491,PAYLOAD,2021-07-22 10:18:43,15.06391247,5.91e-05,53.0538,203.9634,44.4222,315.6814,-8.6632e-05,-1.571e-05,0.0,0 STARLINK-2491,1 48148U 21027BJ  21203.42967400 -.00001571  00000-0 -86632-4 0  9992,2 48148  53.0538 203.9634 0000591  44.4222 315.6814 15.06391247 17498,6925.375,95.59299999999999,547.65,546.831,0.0
48148,STARLINK-2491,PAYLOAD,2021-07-22 16:40:53,15.06391025,6.0299999999999995e-05,53.0539,202.7721,43.8876,316.2161,-8.073399999999999e-05,-1.483e-05,0.0,0 STARLINK-2491,1 48148U 21027BJ  21203.69506233 -.00001483  00000-0 -80734-4 0  9993,2 48148  53.0539 202.7721 0000603  43.8876 316.2161 15.06391025 17536,6925.376,95.59299999999999,547.659,546.823,0.0
48148,STARLINK-2491,PAYLOAD,2021-07-23 10:11:49,15.06390839,6.8e-05,53.0538,199.4957,45.0528,315.0516,-6.7339e-05,-1.284e-05,0.0,0 STARLINK-2491,1 48148U 21027BJ  21204.42488030 -.00001284  00000-0 -67339-4 0  9994,2 48148  53.0538 199.4957 0000680  45.0528 315.0516 15.06390839 17646,6925.3769999999995,95.59299999999999,547.7130000000002,546.771,0.0
48148,STARLINK-2491,PAYLOAD,2021-07-23 16:33:59,15.06390556,6.96e-05,53.0539,198.3044,44.6225,315.482,-5.7852e-05,-1.142e-05,0.0,0 STARLINK-2491,1 48148U 21027BJ  21204.69026905 -.00001142  00000-0 -57852-4 0  9994,2 48148  53.0539 198.3044 0000696  44.6225 315.4820 15.06390556 17297,6925.378000000002,95.59299999999999,547.725,546.76,0.0
48148,STARLINK-2491,PAYLOAD,2021-07-24 11:40:28,15.06385599,7.52e-05,53.0558,194.7308,75.0726,285.0346,4.8203e-05,4.37e-06,0.0,0 STARLINK-2491,1 48148U 21027BJ  21205.48643654  .00000437  00000-0  48203-4 0  9992,2 48148  53.0558 194.7308 0000752  75.0726 285.0346 15.06385599 17801,6925.393,95.59299999999999,547.778,546.737,0.0
48148,STARLINK-2491,PAYLOAD,2021-07-25 05:11:24,15.06385111,6.720000000000001e-05,53.0561,191.4543,34.1911,325.9121,7.128399999999999e-05,7.8e-06,0.0,0 STARLINK-2491,1 48148U 21027BJ  21206.21625615  .00000780  00000-0  71284-4 0  9997,2 48148  53.0561 191.4543 0000672  34.1911 325.9121 15.06385111 17527,6925.394,95.59299999999999,547.725,546.794,0.0
48148,STARLINK-2491,PAYLOAD,2021-07-25 11:33:34,15.06387916,8.57e-05,53.056000000000004,190.263,53.5306,306.5762,4.9008e-05,4.49e-06,0.0,0 STARLINK-2491,1 48148U 21027BJ  21206.48164444  .00000449  00000-0  49008-4 0  9995,2 48148  53.0560 190.2630 0000857  53.5306 306.5762 15.06387916 17956,6925.3859999999995,95.59299999999999,547.844,546.6569999999998,0.0
48148,STARLINK-2491,PAYLOAD,2021-07-25 16:20:10,15.06435476,0.00010449999999999999,53.0561,189.3695,27.8911,332.2134,-0.00060044,-9.222e-05,0.0,0 STARLINK-2491,1 48148U 21027BJ  21206.68067317 -.00009222  00000-0 -60044-3 0  9990,2 48148  53.0561 189.3695 0001045  27.8911 332.2134 15.06435476 17597,6925.24,95.59,547.8290000000002,546.381,0.0
48148,STARLINK-2491,PAYLOAD,2021-07-26 01:53:25,15.06390116,9.01e-05,53.0561,187.5825,44.5509,315.5552,3.6006e-05,2.55e-06,0.0,0 STARLINK-2491,1 48148U 21027BJ  21207.07876793  .00000255  00000-0  36006-4 0  9997,2 48148  53.0561 187.5825 0000901  44.5509 315.5552 15.06390116 17657,6925.379,95.59299999999999,547.868,546.62,0.0
48148,STARLINK-2491,PAYLOAD,2021-07-26 09:51:07,15.06391778,9.48e-05,53.0561,186.0934,43.9756,316.1308,3.9903e-05,3.13e-06,0.0,0 STARLINK-2491,1 48148U 21027BJ  21207.41050233  .00000313  00000-0  39903-4 0  9992,2 48148  53.0561 186.0934 0000948  43.9756 316.1308 15.06391778 18090,6925.374,95.59299999999999,547.895,546.582,0.0
48148,STARLINK-2491,PAYLOAD,2021-07-27 09:44:12,15.06395216,0.00010290000000000001,53.0562,181.62599999999998,44.1272,315.9799,3.9949e-05,3.14e-06,0.0,0 STARLINK-2491,1 48148U 21027BJ  21208.40570551  .00000314  00000-0  39949-4 0  9993,2 48148  53.0562 181.6260 0001029  44.1272 315.9799 15.06395216 17856,6925.363,95.59200000000001,547.941,546.516,0.0
48148,STARLINK-2491,PAYLOAD,2021-07-28 04:50:41,15.06398408,0.0001078,53.0562,178.0521,44.87,315.2376,5.2647e-05,5.03e-06,0.0,0 STARLINK-2491,1 48148U 21027BJ  21209.20186593  .00000503  00000-0  52647-4 0  9991,2 48148  53.0562 178.0521 0001078  44.8700 315.2376 15.06398408 18360,6925.353,95.59200000000001,547.965,546.472,0.0
48148,STARLINK-2491,PAYLOAD,2021-07-28 22:21:37,15.06400928,0.0001125,53.0563,174.7761,45.6952,314.4129,4.209600000000001e-05,3.46e-06,0.0,0 STARLINK-2491,1 48148U 21027BJ  21209.93167924  .00000346  00000-0  42096-4 0  9990,2 48148  53.0563 174.7761 0001125  45.6952 314.4129 15.06400928 18471,6925.346,95.59200000000001,547.99,546.432,0.0
48148,STARLINK-2491,PAYLOAD,2021-07-29 01:32:41,15.06402389,0.0001141,53.0563,174.1804,46.0604,314.0479,5.2439e-05,5e-06,0.0,0 STARLINK-2491,1 48148U 21027BJ  21210.06437139  .00000500  00000-0  52439-4 0  9998,2 48148  53.0563 174.1804 0001141  46.0604 314.0479 15.06402389 18107,6925.3409999999985,95.59200000000001,547.996,546.4159999999998,0.0
48148,STARLINK-2491,PAYLOAD,2021-07-29 09:30:23,15.06403828,0.00011690000000000001,53.0563,172.6912,46.8617,313.247,6.6116e-05,7.04e-06,0.0,0 STARLINK-2491,1 48148U 21027BJ  21210.39610325  .00000704  00000-0  66116-4 0  9997,2 48148  53.0563 172.6912 0001169  46.8617 313.2470 15.06403828 18541,6925.3369999999995,95.59200000000001,548.011,546.3919999999998,0.0
48148,STARLINK-2491,PAYLOAD,2021-07-29 14:17:00,15.064046300000001,0.0001179,53.0564,171.7977,46.7817,313.327,6.645e-05,7.09e-06,0.0,0 STARLINK-2491,1 48148U 21027BJ  21210.59514240  .00000709  00000-0  66450-4 0  9994,2 48148  53.0564 171.7977 0001179  46.7817 313.3270 15.06404630 18579,6925.334,95.59200000000001,548.016,546.383,0.0
48148,STARLINK-2491,PAYLOAD,2021-07-30 09:23:28,15.06409602,0.0001238,53.0563,168.2237,48.2823,311.8272,7.4588e-05,8.3e-06,0.0,0 STARLINK-2491,1 48148U 21027BJ  21211.39129631  .00000830  00000-0  74588-4 0  9995,2 48148  53.0563 168.2237 0001238  48.2823 311.8272 15.06409602 18690,6925.319,95.59200000000001,548.0409999999998,546.327,0.0
48148,STARLINK-2491,PAYLOAD,2021-07-30 14:10:04,15.06411076,0.0001283,53.0565,167.3302,47.5987,312.51099999999997,7.5628e-05,8.46e-06,0.0,0 STARLINK-2491,1 48148U 21027BJ  21211.59033425  .00000846  00000-0  75628-4 0  9995,2 48148  53.0565 167.3302 0001283  47.5987 312.5110 15.06411076 18336,6925.315,95.59100000000001,548.068,546.2909999999998,0.0
48148,STARLINK-2491,PAYLOAD,2021-07-31 01:18:52,15.06398959,0.0001329,53.0566,165.2453,49.7349,310.3756,-5.0708e-05,-1.037e-05,0.0,0 STARLINK-2491,1 48148U 21027BJ  21212.05477270 -.00001037  00000-0 -50708-4 0  9994,2 48148  53.0566 165.2453 0001329  49.7349 310.3756 15.06398959 18402,6925.352,95.59200000000001,548.137,546.2959999999998,0.0
48148,STARLINK-2491,PAYLOAD,2021-07-31 14:03:11,15.06399424,0.00013619999999999998,53.0566,162.8628,51.0211,309.0899,-4.8478e-05,-1.003e-05,0.0,0 STARLINK-2491,1 48148U 21027BJ  21212.58554584 -.00001003  00000-0 -48478-4 0  9990,2 48148  53.0566 162.8628 0001362  51.0211 309.0899 15.06399424 18872,6925.35,95.59200000000001,548.159,546.2719999999998,0.0
48148,STARLINK-2491,PAYLOAD,2021-08-01 02:47:30,15.06400082,0.00014240000000000002,53.0567,160.4802,52.9389,307.173,-5.980100000000001e-05,-1.172e-05,0.0,0 STARLINK-2491,1 48148U 21027BJ  21213.11631956 -.00001172  00000-0 -59801-4 0  9998,2 48148  53.0567 160.4802 0001424  52.9389 307.1730 15.06400082 18568,6925.348000000001,95.59200000000001,548.1990000000002,546.227,0.0
48148,STARLINK-2491,PAYLOAD,2021-08-01 07:34:06,15.06400845,0.000147,53.0567,159.5865,54.0885,306.024,-4.6937e-05,-9.81e-06,0.0,0 STARLINK-2491,1 48148U 21027BJ  21213.31535864 -.00000981  00000-0 -46937-4 0  9994,2 48148  53.0567 159.5865 0001470  54.0885 306.0240 15.06400845 18988,6925.346,95.59200000000001,548.229,546.193,0.0
48148,STARLINK-2491,PAYLOAD,2021-08-01 20:18:25,15.06397371,0.0001516,53.0567,157.2039,55.6162,304.497,-2.4828e-06,-3.18e-06,0.0,0 STARLINK-2491,1 48148U 21027BJ  21213.84613338 -.00000318  00000-0 -24828-5 0  9995,2 48148  53.0567 157.2039 0001516  55.6162 304.4970 15.06397371 19063,6925.357,95.59200000000001,548.271,546.172,0.0
48148,STARLINK-2491,PAYLOAD,2021-08-02 07:27:12,15.06396699,0.0001574,53.0567,155.1192,56.5772,303.5367,5.8923999999999994e-05,5.96e-06,0.0,0 STARLINK-2491,1 48148U 21027BJ  21214.31055965  .00000596  00000-0  58924-4 0  9993,2 48148  53.0567 155.1192 0001574  56.5772 303.5367 15.06396699 18747,6925.359,95.59200000000001,548.314,546.134,0.0
48148,STARLINK-2491,PAYLOAD,2021-08-03 05:44:47,15.0637894,0.00017280000000000005,53.0568,150.9498,60.2693,299.8467,-0.00013765,-2.33e-05,0.0,0 STARLINK-2491,1 48148U 21027BJ  21215.23943403 -.00002330  00000-0 -13765-3 0  9991,2 48148  53.0568 150.9498 0001728  60.2693 299.8467 15.06378940 18887,6925.413000000001,95.59299999999999,548.475,546.081,0.0
48148,STARLINK-2491,PAYLOAD,2021-08-04 05:37:53,15.06382163,0.0001794,53.0569,146.4825,62.1863,297.9308,-0.00010452,-1.837e-05,0.0,0 STARLINK-2491,1 48148U 21027BJ  21216.23464401 -.00001837  00000-0 -10452-3 0  9999,2 48148  53.0569 146.4825 0001794  62.1863 297.9308 15.06382163 19038,6925.403,95.59299999999999,548.511,546.026,0.0
48148,STARLINK-2491,PAYLOAD,2021-08-04 12:00:02,15.06382031,0.0001805,53.056999999999995,145.2912,62.4935,297.6237,-0.00010098,-1.785e-05,0.0,0 STARLINK-2491,1 48148U 21027BJ  21216.50003419 -.00001785  00000-0 -10098-3 0  9995,2 48148  53.0570 145.2912 0001805  62.4935 297.6237 15.06382031 19469,6925.404,95.59299999999999,548.519,546.019,0.0
48148,STARLINK-2491,PAYLOAD,2021-08-05 00:44:21,15.06386064,0.0001851,53.0569,142.9083,64.7045,295.4136,3.8187e-05,2.87e-06,0.0,0 STARLINK-2491,1 48148U 21027BJ  21217.03080583  .00000287  00000-0  38187-4 0  9995,2 48148  53.0569 142.9083 0001851  64.7045 295.4136 15.06386064 19158,6925.391,95.59299999999999,548.538,545.974,0.0
